NORAD_CAT_ID,OBJECT_NAME,OBJECT_TYPE,EPOCH,MEAN_MOTION,ECCENTRICITY,INCLINATION,RA_OF_ASC_NODE,ARG_OF_PERICENTER,MEAN_ANOMALY,BSTAR,MEAN_MOTION_DOT,MEAN_MOTION_DDOT,TLE_LINE0,TLE_LINE1,TLE_LINE2,SEMIMAJOR_AXIS,PERIOD,APOGEE,PERIGEE,DECAYED
49157.0,STARLINK-3051,PAYLOAD,2022-03-16 06:00:00,14.96726923,0.0003328,70.0014,340.5874,284.8540000000001,90.3702,-9.9454e-05,-1.23e-05,0.0,0 STARLINK-3051,1 49157U 21082AD  22075.25001157 -.00001230  00000-0 -99454-4 0  9999,2 49157  70.0014 340.5874 0003328 284.8540  90.3702 14.96726923 29739,6955.155,96.21,579.3340000000002,574.705,0.0
49157.0,STARLINK-3051,PAYLOAD,2022-03-16 14:00:01,14.966892,0.0003242,70.0015,339.7491,278.1623,92.6311,0.0061885,0.00071422,0.0,0 STARLINK-3051,1 49157U 21082AD  22075.58334491  .00071422  00000-0  61885-2 0  9998,2 49157  70.0015 339.7491 0003242 278.1623  92.6311 14.96689200  3591,6955.272,96.212,579.391,574.882,0.0
49157.0,STARLINK-3051,PAYLOAD,2022-03-16 20:00:01,14.96761546,0.0003319,70.0019,339.1204,278.5356,358.9027,-0.0068693,-0.00077939,0.0,0 STARLINK-3051,1 49157U 21082AD  22075.83334491 -.00077939  00000-0 -68693-2 0  9991,2 49157  70.0019 339.1204 0003319 278.5356 358.9027 14.96761546  3599,6955.047,96.208,579.221,574.604,0.0
49157.0,STARLINK-3051,PAYLOAD,2022-03-17 14:00:01,14.96669849,0.0003367,70.0013,337.2341,277.1117,80.3248,0.006483,0.00074825,0.0,0 STARLINK-3051,1 49157U 21082AD  22076.58334491  .00074825  00000-0  64830-2 0  9992,2 49157  70.0013 337.2341 0003367 277.1117  80.3248 14.96669849 29937,6955.331999999999,96.214,579.538,574.855,0.0
49157.0,STARLINK-3051,PAYLOAD,2022-03-17 22:00:00,14.96726608,0.0003428,70.0014,336.3958,279.4248,73.536,-0.002413,-0.0002761,0.0,0 STARLINK-3051,1 49157U 21082AD  22076.91667824 -.00027610  00000-0 -24130-2 0  9999,2 49157  70.0014 336.3958 0003428 279.4248  73.5360 14.96726608  3602,6955.156,96.21,579.405,574.636,0.0
49157.0,STARLINK-3051,PAYLOAD,2022-03-18 06:00:00,14.96726632,0.0003471,70.001,335.5574,282.6457,65.8614,-0.0012864,-0.00014789,0.0,0 STARLINK-3051,1 49157U 21082AD  22077.25001157 -.00014789  00000-0 -12864-2 0  9992,2 49157  70.0010 335.5574 0003471 282.6457  65.8614 14.96726632 30039,6955.156,96.21,579.435,574.606,0.0
49157.0,STARLINK-3051,PAYLOAD,2022-03-18 14:00:01,14.96682765,0.0003399,70.001,334.7191,276.6202,67.4502,0.0066333,0.00076607,0.0,0 STARLINK-3051,1 49157U 21082AD  22077.58334491  .00076607  00000-0  66333-2 0  9993,2 49157  70.0010 334.7191 0003399 276.6202  67.4502 14.96682765  3622,6955.292,96.213,579.521,574.7919999999998,0.0
49157.0,STARLINK-3051,PAYLOAD,2022-03-18 22:00:00,14.96737324,0.000345,70.0011,333.8808,279.249,60.3631,-0.0021862,-0.0002504,0.0,0 STARLINK-3051,1 49157U 21082AD  22077.91667824 -.00025040  00000-0 -21862-2 0  9994,2 49157  70.0011 333.8808 0003450 279.2490  60.3631 14.96737324  3676,6955.121999999999,96.209,579.387,574.5880000000002,0.0
49157.0,STARLINK-3051,PAYLOAD,2022-03-19 02:00:01,14.96707886,0.0003444,70.0011,333.4617,282.4278,235.0334,0.0031253,0.00035858,0.0,0 STARLINK-3051,1 49157U 21082AD  22078.08335648  .00035858  00000-0  31253-2 0  9990,2 49157  70.0011 333.4617 0003444 282.4278 235.0334 14.96707886 30157,6955.214,96.211,579.474,574.683,0.0
49157.0,STARLINK-3051,PAYLOAD,2022-03-19 14:00:01,14.9669454,0.0003379,70.0007,332.2042,276.7027,54.0394,0.0063876,0.00073758,0.0,0 STARLINK-3051,1 49157U 21082AD  22078.58334491  .00073758  00000-0  63876-2 0  9997,2 49157  70.0007 332.2042 0003379 276.7027  54.0394 14.96694540 30232,6955.255,96.212,579.47,574.77,0.0
49157.0,STARLINK-3051,PAYLOAD,2022-03-19 22:00:01,14.96742734,0.0003429,70.0007,331.3658,279.998,46.3621,-0.0017973,-0.00020617,0.0,0 STARLINK-3051,1 49157U 21082AD  22078.91668981 -.00020617  00000-0 -17973-2 0  9993,2 49157  70.0007 331.3658 0003429 279.9980  46.3621 14.96742734  3612,6955.106,96.209,579.356,574.586,0.0
49157.0,STARLINK-3051,PAYLOAD,2022-03-20 06:00:00,14.96758403,0.0003367,70.0002,330.5275,282.8374,39.024,-0.0040392,-0.00046072,0.0,0 STARLINK-3051,1 49157U 21082AD  22079.25001157 -.00046072  00000-0 -40392-2 0  9991,2 49157  70.0002 330.5275 0003367 282.8374  39.0240 14.96758403 30339,6955.057,96.208,579.264,574.58,0.0
49157.0,STARLINK-3051,PAYLOAD,2022-03-20 14:00:01,14.96693265,0.0003202,70.0002,329.6891,277.3124,40.1414,0.004364,0.0005019,0.0,0 STARLINK-3051,1 49157U 21082AD  22079.58334491  .00050190  00000-0  43640-2 0  9990,2 49157  70.0002 329.6891 0003202 277.3124  40.1414 14.96693265  3433,6955.259,96.212,579.351,574.8969999999998,0.0
49157.0,STARLINK-3051,PAYLOAD,2022-03-20 20:00:01,14.9674114,0.0003233,70.0004,329.0602,279.0973,305.0074,-0.003445,-0.00039328,0.0,0 STARLINK-3051,1 49157U 21082AD  22079.83334491 -.00039328  00000-0 -34450-2 0  9999,2 49157  70.0004 329.0602 0003233 279.0973 305.0074 14.96741140 30413,6955.111,96.209,579.224,574.727,0.0
49157.0,STARLINK-3051,PAYLOAD,2022-03-20 22:00:01,14.96724674,0.000324,70.0003,328.8506,281.1054,31.9576,-0.0011312,-0.00013018,0.0,0 STARLINK-3051,1 49157U 21082AD  22079.91668981 -.00013018  00000-0 -11312-2 0  9992,2 49157  70.0003 328.8506 0003240 281.1054  31.9576 14.96724674  3486,6955.1619999999975,96.21,579.28,574.773,0.0
49157.0,STARLINK-3051,PAYLOAD,2022-03-21 14:00:01,14.96697457,0.0003138,69.9998,327.1737,277.2432,26.8681,0.00478,0.00055027,0.0,0 STARLINK-3051,1 49157U 21082AD  22080.58334491  .00055027  00000-0  47800-2 0  9998,2 49157  69.9998 327.1737 0003138 277.2432  26.8681 14.96697457 30530,6955.246,96.212,579.294,574.928,0.0
49157.0,STARLINK-3051,PAYLOAD,2022-03-21 22:00:00,14.96723145,0.0003275,70.0,326.3351,280.8292,18.836,-0.0035563,-0.00040569,0.0,0 STARLINK-3051,1 49157U 21082AD  22080.91667824 -.00040569  00000-0 -35563-2 0  9994,2 49157  70.0000 326.3351 0003275 280.8292  18.8360 14.96723145 30580,6955.166,96.21,579.309,574.754,0.0
49157.0,STARLINK-3051,PAYLOAD,2022-03-22 14:00:01,14.96677114,0.0003234,69.9996,324.6581,276.402,14.338,0.0050501,0.00058137,0.0,0 STARLINK-3051,1 49157U 21082AD  22081.58334491  .00058137  00000-0  50501-2 0  9996,2 49157  69.9996 324.6581 0003234 276.4020  14.3380 14.96677114 30680,6955.309,96.213,579.423,574.925,0.0
49157.0,STARLINK-3051,PAYLOAD,2022-03-22 22:00:01,14.96710162,0.0003315,69.9999,323.8195,280.021,6.3118,-0.0008404999999999,-9.697e-05,0.0,0 STARLINK-3051,1 49157U 21082AD  22081.91668981 -.00009697  00000-0 -84050-3 0  9993,2 49157  69.9999 323.8195 0003315 280.0210   6.3118 14.96710162  3598,6955.206999999999,96.211,579.377,574.766,0.0
49157.0,STARLINK-3051,PAYLOAD,2022-03-23 06:00:00,14.96731616,0.0003331,69.9995,322.981,281.4047,0.3967,-0.0038081,-0.00043427,0.0,0 STARLINK-3051,1 49157U 21082AD  22082.25001157 -.00043427  00000-0 -38081-2 0  9998,2 49157  69.9995 322.9810 0003331 281.4047   0.3967 14.96731616 30783,6955.14,96.21,579.322,574.688,0.0
49157.0,STARLINK-3051,PAYLOAD,2022-03-23 14:00:01,14.96690174,0.0003281,69.9997,322.1425,275.6288,1.7256,0.0047777,0.0005499,0.0,0 STARLINK-3051,1 49157U 21082AD  22082.58334491  .00054990  00000-0  47777-2 0  9991,2 49157  69.9997 322.1425 0003281 275.6288   1.7256 14.96690174  3605,6955.269,96.212,579.4159999999998,574.852,0.0
49157.0,STARLINK-3051,PAYLOAD,2022-03-23 22:00:00,14.96718576,0.0003344,69.9999,321.3040000000001,279.6419,353.2586,-0.00047734,-5.551e-05,0.0,0 STARLINK-3051,1 49157U 21082AD  22082.91667824 -.00005551  00000-0 -47734-3 0  9992,2 49157  69.9999 321.3040 0003344 279.6419 353.2586 14.96718576 30889,6955.181,96.21,579.371,574.72,0.0
49157.0,STARLINK-3051,PAYLOAD,2022-03-24 14:00:01,14.96704108,0.0003306,69.9999,319.627,275.4337,348.5715,0.0043488999999999,0.00050029,0.0,0 STARLINK-3051,1 49157U 21082AD  22083.58334491  .00050029  00000-0  43489-2 0  9997,2 49157  69.9999 319.6270 0003306 275.4337 348.5715 14.96704108  3578,6955.225,96.211,579.39,574.7909999999998,0.0
49157.0,STARLINK-3051,PAYLOAD,2022-03-24 22:00:00,14.96725899,0.0003347,70.0001,318.7886,279.8539,339.7141,5.0946e-05,4.92e-06,0.0,0 STARLINK-3051,1 49157U 21082AD  22083.91667824  .00000492  00000-0  50946-4 0  9990,2 49157  70.0001 318.7886 0003347 279.8539 339.7141 14.96725899 31032,6955.158,96.21,579.351,574.695,0.0
49157.0,STARLINK-3051,PAYLOAD,2022-03-25 14:00:01,14.96696724,0.0003149,70.0001,317.1118,275.8426,334.8537,0.0029629,0.0003397,0.0,0 STARLINK-3051,1 49157U 21082AD  22084.58334491  .00033970  00000-0  29629-2 0  9994,2 49157  70.0001 317.1118 0003149 275.8426 334.8537 14.96696724  3571,6955.248000000001,96.212,579.303,574.923,0.0
49157.0,STARLINK-3051,PAYLOAD,2022-03-25 22:00:01,14.96704224,0.0003191,70.0001,316.2734,280.9483,325.3555,0.0005666,6.398e-05,0.0,0 STARLINK-3051,1 49157U 21082AD  22084.91668981  .00006398  00000-0  56660-3 0  9995,2 49157  70.0001 316.2734 0003191 280.9483 325.3555 14.96704224 31180,6955.225,96.211,579.309,574.871,0.0
49157.0,STARLINK-3051,PAYLOAD,2022-03-26 14:00:01,14.96716667,0.000325,70.0,314.5921,281.5656,315.7259,-0.00026974,-3.178e-05,0.0,0 STARLINK-3051,1 49157U 21082AD  22085.58334491 -.00003178  00000-0 -26974-3 0  9995,2 49157  70.0000 314.5921 0003250 281.5656 315.7259 14.96716667  3562,6955.186,96.211,579.312,574.7909999999998,0.0
49157.0,STARLINK-3051,PAYLOAD,2022-03-26 22:00:00,14.96709772,0.0003123,70.0001,313.7583,281.4967,311.3758,0.00079991,9.075e-05,0.0,0 STARLINK-3051,1 49157U 21082AD  22085.91667824  .00009075  00000-0  79991-3 0  9998,2 49157  70.0001 313.7583 0003123 281.4967 311.3758 14.96709772  3588,6955.208000000001,96.211,579.245,574.901,0.0
49157.0,STARLINK-3051,PAYLOAD,2022-03-27 06:00:00,14.96743419,0.0003075,69.9997,312.9199,281.2769,307.136,-0.0043868,-0.0004998,0.0,0 STARLINK-3051,1 49157U 21082AD  22086.25001157 -.00049980  00000-0 -43868-2 0  9991,2 49157  69.9997 312.9199 0003075 281.2769 307.1360 14.96743419 31384,6955.104,96.209,579.107,574.83,0.0
